LANDSAT 9               
1 49260U 21088A   24254.18394565  .00002010  00000+0  45626-3 0  9996
2 49260  98.2248 322.7287 0001310  86.6789 273.4560 14.57092922157063
